OBJECT_NAME,OBJECT_ID,EPOCH,MEAN_MOTION,ECCENTRICITY,INCLINATION,RA_OF_ASC_NODE,ARG_OF_PERICENTER,MEAN_ANOMALY,EPHEMERIS_TYPE,CLASSIFICATION_TYPE,NORAD_CAT_ID,ELEMENT_SET_NO,REV_AT_EPOCH,BSTAR,MEAN_MOTION_DOT,MEAN_MOTION_DDOT
STARLINK-36533,2026-020AC,2026-06-07T06:10:43.781952,15.27610215,.0000938,43.0028,353.7960,269.1150,90.9594,0,U,67643,999,1981,.856E-3,.2339E-3,0
STARLINK-36623,2026-020AD,2026-06-07T20:03:21.223584,15.27588137,.0000399,43.0110,350.3845,358.5165,1.5685,0,U,67644,999,1990,.95406908E-3,.26091E-3,0
STARLINK-36619,2026-020AE,2026-06-07T20:01:29.859168,15.27581738,.0000761,43.0035,350.3720,83.7819,276.3119,0,U,67645,999,1990,.94020372E-3,.25702E-3,0
STARLINK-36719,2026-022A,2026-06-08T02:25:15.018528,15.33438461,.00012002,97.2844,192.0858,91.3924,268.7456,0,U,67648,999,1942,.68829104E-3,.22206E-3,0
STARLINK-36342,2026-022B,2026-06-08T00:49:29.619840,15.33436616,.00008606,97.2842,193.0897,95.4031,264.7310,0,U,67649,999,1948,.73581527E-3,.23748E-3,0
STARLINK-36703,2026-022C,2026-06-08T01:38:15.999072,15.33428320,.00012586,97.2834,192.1289,92.9867,267.1519,0,U,67650,999,1942,.63230064E-3,.20382E-3,0
STARLINK-36696,2026-022D,2026-06-08T00:27:47.365344,15.33432769,.00014798,97.2838,192.0427,82.3674,277.7737,0,U,67651,999,1941,.70738103E-3,.22822E-3,0
STARLINK-36699,2026-022E,2026-06-08T01:14:46.602528,15.33458475,.00016383,97.2813,192.1518,125.6881,234.4514,0,U,67652,999,1942,.68374814E-3,.22073E-3,0
STARLINK-36694,2026-022F,2026-06-08T00:39:33.748416,15.33466647,.00015115,97.2838,192.0338,86.9871,273.1545,0,U,67653,999,1941,.10602346E-2,.34333E-3,0
STARLINK-36620,2026-022G,2026-06-08T01:50:00.792384,15.33426947,.00014879,97.2841,192.1181,90.3483,269.7930,0,U,67654,999,1942,.71291394E-3,.22998E-3,0
STARLINK-36720,2026-022H,2026-06-08T01:26:31.337952,15.33430291,.00012166,97.2831,192.1435,72.9170,287.2206,0,U,67655,999,1942,.81338861E-3,.26263E-3,0
STARLINK-36688,2026-022J,2026-06-08T01:03:01.846368,15.33441153,.00014888,97.2832,192.1640,85.1804,274.9609,0,U,67656,999,1942,.1002657E-2,.3243E-3,0
STARLINK-36706,2026-022K,2026-06-08T00:31:42.296448,15.33433497,.00014292,97.2840,192.0403,89.8068,270.3339,0,U,67657,999,1941,.93367437E-3,.30177E-3,0
STARLINK-36701,2026-022L,2026-06-08T01:53:55.635360,15.33434081,.00010787,97.2850,192.1140,87.2343,272.9023,0,U,67658,999,1942,.72023072E-3,.2324E-3,0
STARLINK-36642,2026-022M,2026-06-08T01:42:10.836864,15.33429831,.00009386,97.2840,192.1257,95.7939,264.3411,0,U,67659,999,1942,.6420693E-3,.207E-3,0
STARLINK-36673,2026-022N,2026-06-08T01:30:26.160192,15.33429993,.00010028,97.2845,192.1365,120.1210,240.0132,0,U,67660,999,1942,.63394887E-3,.20437E-3,0
STARLINK-36674,2026-022P,2026-06-08T01:18:41.321952,15.33422709,.00009712,97.2841,192.1492,94.6094,265.5259,0,U,67661,999,1942,.57500952E-3,.18521E-3,0
STARLINK-36700,2026-022Q,2026-06-08T02:29:11.695776,15.33423432,.00013906,97.2835,192.2367,87.3320,272.8082,0,U,67662,999,1943,.8484744E-3,.27398E-3,0
STARLINK-36675,2026-022R,2026-06-08T01:06:56.819808,15.33438203,.00015556,97.2835,192.1616,75.7378,284.4038,0,U,67663,999,1942,.92191583E-3,.29799E-3,0
STARLINK-36404,2026-022S,2026-06-08T00:47:22.024320,15.33437926,.00015688,97.2839,192.0263,83.3956,276.7465,0,U,67664,999,1941,.94830643E-3,.30658E-3,0
STARLINK-36399,2026-022T,2026-06-08T00:43:27.140736,15.33434568,.00015464,97.2838,192.0313,84.5821,275.5598,0,U,67665,999,1941,.81175517E-3,.26214E-3,0
STARLINK-36365,2026-022U,2026-06-08T00:35:37.104864,15.33427551,.00016412,97.2843,192.0383,93.1767,266.9664,0,U,67666,999,1941,.9640046E-3,.31159E-3,0
STARLINK-36622,2026-022V,2026-06-08T00:23:52.384992,15.33430488,.00008343,97.2844,192.0478,98.9751,261.1586,0,U,67667,999,1941,.68555081E-3,.22112E-3,0
STARLINK-36625,2026-022W,2026-06-08T00:12:07.663392,15.33428417,.00007833,97.2840,192.0592,92.9330,267.2003,0,U,67668,999,1941,.59473257E-3,.19164E-3,0
STARLINK-36639,2026-022X,2026-06-08T01:34:21.086976,15.33431035,.00010098,97.2850,192.1350,86.1916,273.9442,0,U,67669,999,1942,.8328548E-3,.26897E-3,0
STARLINK-36596,2026-022Y,2026-06-08T01:22:36.474240,15.33430764,.00013275,97.2844,192.1457,86.3430,273.7965,0,U,67670,999,1942,.79842341E-3,.25778E-3,0
STARLINK-36297,2026-022Z,2026-06-08T00:59:07.178784,15.33462230,.00013781,97.2837,192.1695,84.7728,275.3672,0,U,67671,999,1942,.77917482E-3,.25177E-3,0
STARLINK-36616,2026-022AA,2026-06-08T01:10:53.290560,15.33475652,.00025892,97.2827,192.1598,57.2060,302.9432,0,U,67672,999,1942,.15639197E-2,.50807E-3,0
STARLINK-36748,2026-025A,2026-06-08T07:31:45.796800,15.33462369,.00011154,97.2847,270.7653,63.6515,296.4842,0,U,67693,999,1990,.65864165E-3,.2126E-3,0
STARLINK-36753,2026-025B,2026-06-08T05:38:13.325280,15.33447209,.00003831,97.2843,270.5701,131.0100,229.1176,0,U,67694,999,1989,.58524379E-3,.18867E-3,0
