STARLINK-36533          
1 67643U 26020AC  26158.25745118  .00023390  00000+0  85600-3 0  9999
2 67643  43.0028 353.7960 0000938 269.1150  90.9594 15.27610215 19817
STARLINK-36623          
1 67644U 26020AD  26158.83566231  .00026091  00000+0  95407-3 0  9998
2 67644  43.0110 350.3845 0000399 358.5165   1.5685 15.27588137 19901
STARLINK-36619          
1 67645U 26020AE  26158.83437337  .00025702  00000+0  94020-3 0  9991
2 67645  43.0035 350.3720 0000761  83.7819 276.3119 15.27581738 19900
STARLINK-36719          
1 67648U 26022A   26159.10086827  .00022206  00000+0  68829-3 0  9995
2 67648  97.2844 192.0858 0001200  91.3924 268.7456 15.33438461 19423
STARLINK-36342          
1 67649U 26022B   26159.03437060  .00023748  00000+0  73582-3 0  9991
2 67649  97.2842 193.0897 0000860  95.4031 264.7310 15.33436616 19482
STARLINK-36703          
1 67650U 26022C   26159.06824073  .00020382  00000+0  63230-3 0  9990
2 67650  97.2834 192.1289 0001258  92.9867 267.1519 15.33428320 19426
STARLINK-36696          
1 67651U 26022D   26159.01929821  .00022822  00000+0  70738-3 0  9995
2 67651  97.2838 192.0427 0001479  82.3674 277.7737 15.33432769 19418
STARLINK-36699          
1 67652U 26022E   26159.05192827  .00022073  00000+0  68375-3 0  9990
2 67652  97.2813 192.1518 0001638 125.6881 234.4514 15.33458475 19428
STARLINK-36694          
1 67653U 26022F   26159.02747394  .00034333  00000+0  10602-2 0  9994
2 67653  97.2838 192.0338 0001511  86.9871 273.1545 15.33466647 19416
STARLINK-36620          
1 67654U 26022G   26159.07639806  .00022998  00000+0  71291-3 0  9994
2 67654  97.2841 192.1181 0001487  90.3483 269.7930 15.33426947 19427
STARLINK-36720          
1 67655U 26022H   26159.06008493  .00026263  00000+0  81339-3 0  9999
2 67655  97.2831 192.1435 0001216  72.9170 287.2206 15.33430291 19426
STARLINK-36688          
1 67656U 26022J   26159.04377137  .00032430  00000+0  10027-2 0  9990
2 67656  97.2832 192.1640 0001488  85.1804 274.9609 15.33441153 19426
STARLINK-36706          
1 67657U 26022K   26159.02201732  .00030177  00000+0  93367-3 0  9991
2 67657  97.2840 192.0403 0001429  89.8068 270.3339 15.33433497 19411
STARLINK-36701          
1 67658U 26022L   26159.07911615  .00023240  00000+0  72023-3 0  9994
2 67658  97.2850 192.1140 0001078  87.2343 272.9023 15.33434081 19429
STARLINK-36642          
1 67659U 26022M   26159.07095876  .00020700  00000+0  64207-3 0  9990
2 67659  97.2840 192.1257 0000938  95.7939 264.3411 15.33429831 19420
STARLINK-36673          
1 67660U 26022N   26159.06280278  .00020437  00000+0  63395-3 0  9997
2 67660  97.2845 192.1365 0001002 120.1210 240.0132 15.33429993 19425
STARLINK-36674          
1 67661U 26022P   26159.05464493  .00018521  00000+0  57501-3 0  9993
2 67661  97.2841 192.1492 0000971  94.6094 265.5259 15.33422709 19422
STARLINK-36700          
1 67662U 26022Q   26159.10360759  .00027398  00000+0  84847-3 0  9995
2 67662  97.2835 192.2367 0001390  87.3320 272.8082 15.33423432 19435
STARLINK-36675          
1 67663U 26022R   26159.04649097  .00029799  00000+0  92192-3 0  9993
2 67663  97.2835 192.1616 0001555  75.7378 284.4038 15.33438203 19420
STARLINK-36404          
1 67664U 26022S   26159.03289380  .00030658  00000+0  94831-3 0  9996
2 67664  97.2839 192.0263 0001568  83.3956 276.7465 15.33437926 19411
STARLINK-36399          
1 67665U 26022T   26159.03017524  .00026214  00000+0  81176-3 0  9997
2 67665  97.2838 192.0313 0001546  84.5821 275.5598 15.33434568 19410
STARLINK-36365          
1 67666U 26022U   26159.02473501  .00031159  00000+0  96400-3 0  9998
2 67666  97.2843 192.0383 0001641  93.1767 266.9664 15.33427551 19417
STARLINK-36622          
1 67667U 26022V   26159.01657853  .00022112  00000+0  68555-3 0  9991
2 67667  97.2844 192.0478 0000834  98.9751 261.1586 15.33430488 19416
STARLINK-36625          
1 67668U 26022W   26159.00842203  .00019164  00000+0  59473-3 0  9998
2 67668  97.2840 192.0592 0000783  92.9330 267.2003 15.33428417 19410
STARLINK-36639          
1 67669U 26022X   26159.06552184  .00026897  00000+0  83285-3 0  9990
2 67669  97.2850 192.1350 0001009  86.1916 273.9442 15.33431035 19424
STARLINK-36596          
1 67670U 26022Y   26159.05736660  .00025778  00000+0  79842-3 0  9995
2 67670  97.2844 192.1457 0001327  86.3430 273.7965 15.33430764 19429
STARLINK-36297          
1 67671U 26022Z   26159.04105531  .00025177  00000+0  77917-3 0  9996
2 67671  97.2837 192.1695 0001378  84.7728 275.3672 15.33462230 19420
STARLINK-36616          
1 67672U 26022AA  26159.04922790  .00050807  00000+0  15639-2 0  9991
2 67672  97.2827 192.1598 0002589  57.2060 302.9432 15.33475652 19424
STARLINK-36748          
1 67693U 26025A   26159.31372450  .00021260  00000+0  65864-3 0  9996
2 67693  97.2847 270.7653 0001115  63.6515 296.4842 15.33462369 19900
STARLINK-36753          
1 67694U 26025B   26159.23487645  .00018867  00000+0  58524-3 0  9995
2 67694  97.2843 270.5701 0000383 131.0100 229.1176 15.33447209 19892
